ONEWEB-0033             
1 45142U 20008M   26015.64326800 -.00000012  00000+0 -71113-4 0  9990
2 45142  87.8775  66.6919 0001377 112.0788 248.0486 13.10376249288233
ONEWEB-0035             
1 45143U 20008N   26015.67398933  .00000385  00000+0  10666-2 0  9995
2 45143  87.8766  66.6841 0001715 103.2389 256.8930 13.10370464287966
ONEWEB-0036             
1 45144U 20008P   26015.66402675  .00000653  00000+0  18355-2 0  9995
2 45144  87.8781  66.6477 0002093  98.2169 261.9196 13.10373594288394
ONEWEB-0038             
1 45145U 20008Q   26015.65161990 -.00000504  00000+0 -14573-2 0  9992
2 45145  87.8828  51.4278 0001499  35.0880 325.0347 13.11414156290334
ONEWEB-0039             
1 45146U 20008R   26015.64659216 -.00000023  00000+0 -10319-3 0  9996
2 45146  87.8776  66.6683 0002128  88.1348 272.0023 13.10373149288180
ONEWEB-0040             
1 45147U 20008S   26015.63994508 -.00000177  00000+0 -54196-3 0  9993
2 45147  87.8775  66.6921 0001790  96.6096 263.5236 13.10377506287881
ONEWEB-0043             
1 45149U 20008U   26015.64160339 -.00000143  00000+0 -44686-3 0  9999
2 45149  87.8776  66.6731 0002256  87.9834 272.1551 13.10377294288201
ONEWEB-0044             
1 45150U 20008V   26015.66984335  .00000498  00000+0  13917-2 0  9996
2 45150  87.8776  66.6602 0002057  96.2283 263.9079 13.10371165288507
